{
  "type": "FeatureCollection",
  "features": [
    {
      "type": "Feature",
      "properties": {
        "norad_id": 58654,
        "name": "BEIDOU-3 M28 (C50)",
        "group": "beidou",
        "lat": -38.786386540565005,
        "lon": -77.66638226121589,
        "alt_km": 21528.3560378994,
        "timestamp": "2025-12-02T13:52:17.527779+00:00",
        "meta_object_name": "BEIDOU-3 M28 (C50)",
        "meta_object_id": "2023-207A",
        "meta_epoch": "2025-12-02T05:39:36.194976",
        "meta_mean_motion": 1.8622956,
        "meta_eccentricity": 0.00019879,
        "meta_inclination": 55.5754,
        "meta_ra_of_asc_node": 68.9573,
        "meta_arg_of_pericenter": 264.8944,
        "meta_mean_anomaly": 95.0856,
        "meta_ephemeris_type": 0,
        "meta_classification_type": "U",
        "meta_norad_cat_id": 58654,
        "meta_element_set_no": 999,
        "meta_rev_at_epoch": 1317,
        "meta_bstar": 0,
        "meta_mean_motion_dot": -4.7e-07,
        "meta_mean_motion_ddot": 0,
        "tle_line1": "1 58654U 23207A   25336.23583559 -.00000047  00000+0  00000+0 0  9991",
        "tle_line2": "2 58654  55.5754  68.9573 0001987 264.8944  95.0856  1.86229560 13175"
      },
      "geometry": {
        "type": "Point",
        "coordinates": [
          -77.66638226121589,
          -38.786386540565005
        ]
      }
    },
    {
      "type": "Feature",
      "properties": {
        "norad_id": 58655,
        "name": "BEIDOU-3 M26 (C48)",
        "group": "beidou",
        "lat": 4.126104960419649,
        "lon": 71.76208414732572,
        "alt_km": 21531.863593325314,
        "timestamp": "2025-12-02T13:52:17.527791+00:00",
        "meta_object_name": "BEIDOU-3 M26 (C48)",
        "meta_object_id": "2023-207B",
        "meta_epoch": "2025-11-29T21:15:29.587968",
        "meta_mean_motion": 1.86231123,
        "meta_eccentricity": 0.00033719,
        "meta_inclination": 55.5753,
        "meta_ra_of_asc_node": 69.0231,
        "meta_arg_of_pericenter": 249.3814,
        "meta_mean_anomaly": 110.59,
        "meta_ephemeris_type": 0,
        "meta_classification_type": "U",
        "meta_norad_cat_id": 58655,
        "meta_element_set_no": 999,
        "meta_rev_at_epoch": 1311,
        "meta_bstar": 0,
        "meta_mean_motion_dot": -3.1e-07,
        "meta_mean_motion_ddot": 0,
        "tle_line1": "1 58655U 23207B   25333.88575912 -.00000031  00000+0  00000+0 0  9997",
        "tle_line2": "2 58655  55.5753  69.0231 0003371 249.3814 110.5900  1.86231123 13116"
      },
      "geometry": {
        "type": "Point",
        "coordinates": [
          71.76208414732572,
          4.126104960419649
        ]
      }
    },
    {
      "type": "Feature",
      "properties": {
        "norad_id": 61186,
        "name": "BEIDOU-3 M25 (C47)",
        "group": "beidou",
        "lat": 43.78909074229764,
        "lon": 86.19672504780263,
        "alt_km": 21538.262596348624,
        "timestamp": "2025-12-02T13:52:17.527802+00:00",
        "meta_object_name": "BEIDOU-3 M25 (C47)",
        "meta_object_id": "2024-168B",
        "meta_epoch": "2025-12-01T06:18:53.159328",
        "meta_mean_motion": 1.86229803,
        "meta_eccentricity": 0.000556,
        "meta_inclination": 54.6528,
        "meta_ra_of_asc_node": 309.1184,
        "meta_arg_of_pericenter": 293.396,
        "meta_mean_anomaly": 26.9682,
        "meta_ephemeris_type": 0,
        "meta_classification_type": "U",
        "meta_norad_cat_id": 61186,
        "meta_element_set_no": 999,
        "meta_rev_at_epoch": 809,
        "meta_bstar": 0,
        "meta_mean_motion_dot": -5.7e-07,
        "meta_mean_motion_ddot": 0,
        "tle_line1": "1 61186U 24168B   25335.26311527 -.00000057  00000+0  00000+0 0  9999",
        "tle_line2": "2 61186  54.6528 309.1184 0005560 293.3960  26.9682  1.86229803  8097"
      },
      "geometry": {
        "type": "Point",
        "coordinates": [
          86.19672504780263,
          43.78909074229764
        ]
      }
    },
    {
      "type": "Feature",
      "properties": {
        "norad_id": 61187,
        "name": "BEIDOU-3 M27 (C49)",
        "group": "beidou",
        "lat": -52.57697438684083,
        "lon": -162.92197668941867,
        "alt_km": 21531.7155675218,
        "timestamp": "2025-12-02T13:52:17.527813+00:00",
        "meta_object_name": "BEIDOU-3 M27 (C49)",
        "meta_object_id": "2024-168C",
        "meta_epoch": "2025-12-01T06:11:08.494080",
        "meta_mean_motion": 1.86229947,
        "meta_eccentricity": 0.0002285,
        "meta_inclination": 54.6482,
        "meta_ra_of_asc_node": 309.1022,
        "meta_arg_of_pericenter": 327.2674,
        "meta_mean_anomaly": 124.4273,
        "meta_ephemeris_type": 0,
        "meta_classification_type": "U",
        "meta_norad_cat_id": 61187,
        "meta_element_set_no": 999,
        "meta_rev_at_epoch": 557,
        "meta_bstar": 0,
        "meta_mean_motion_dot": -5.7e-07,
        "meta_mean_motion_ddot": 0,
        "tle_line1": "1 61187U 24168C   25335.25773720 -.00000057  00000+0  00000+0 0  9996",
        "tle_line2": "2 61187  54.6482 309.1022 0002285 327.2674 124.4273  1.86229947  5577"
      },
      "geometry": {
        "type": "Point",
        "coordinates": [
          -162.92197668941867,
          -52.57697438684083
        ]
      }
    }
  ]
}